KUIPER-00589            
1 69767U 26151E   26191.83335647  .00031700  00000+0  85954-3 0  9992
2 69767  51.8755 201.4741 0005509 130.5097 242.8068 15.37339778  1982
KUIPER-00598            
1 69768U 26151F   26191.83335647  .00026942  00000+0  77685-3 0  9997
2 69768  51.8636 201.5765 0010519 153.2941 169.0774 15.35471075  1883
KUIPER-00604            
1 69769U 26151G   26191.83335647  .00032407  00000+0  85563-3 0  9995
2 69769  51.8801 201.4159 0002713  96.3160 302.4063 15.38161108  2309
KUIPER-00609            
1 69770U 26151H   26191.83335647  .00032311  00000+0  84223-3 0  9993
2 69770  51.8804 201.3883 0000912  41.3668  10.4834 15.38559296  1309
KUIPER-00611            
1 69771U 26151J   26191.83335647  .00032389  00000+0  84935-3 0  9999
2 69771  51.8806 201.3979 0001604  95.0650 310.2104 15.38372446  1305
KUIPER-00612            
1 69772U 26151K   26191.83335647  .00032487  00000+0  86596-3 0  9994
2 69772  51.8793 201.4368 0003734 104.0900 285.5302 15.37863097  1309
KUIPER-00614            
1 69773U 26151L   26191.83335647  .00032220  00000+0  85313-3 0  9996
2 69773  51.8804 201.4197 0002753 111.9333 284.1497 15.38075394  1889
KUIPER-00615            
1 69774U 26151M   26191.83335647  .00031314  00000+0  85422-3 0  9991
2 69774  51.8774 201.4842 0006228 133.5456 234.0581 15.37154717  1301
KUIPER-00616            
1 69775U 26151N   26191.83335647  .00032277  00000+0  84804-3 0  9994
2 69775  51.8787 201.4173 0003160 110.5633 289.2486 15.38313102  1309
KUIPER-00617            
1 69776U 26151P   26191.83335647  .00032432  00000+0  86907-3 0  9994
2 69776  51.8798 201.4426 0004119 122.6437 263.4798 15.37699575  1304
KUIPER-00619            
1 69777U 26151Q   26191.83335647  .00032393  00000+0  84705-3 0  9995
2 69777  51.8806 201.3926 0001573  53.3408 355.4835 15.38460163  1379
KUIPER-00621            
1 69778U 26151R   26191.83335647  .00032250  00000+0  84909-3 0  9994
2 69778  51.8797 201.4119 0001993 103.3467 298.1887 15.38251109  2123
KUIPER-00622            
1 69779U 26151S   26191.83335647  .00031854  00000+0  87527-3 0  9993
2 69779  51.8734 201.4983 0006952 134.6471 227.1556 15.36916952  1986
KUIPER-00623            
1 69780U 26151T   26191.83335647  .00031543  00000+0  85494-3 0  9991
2 69780  51.8780 201.4641 0005107 121.9073 255.2335 15.37356878  2106
KUIPER-00626            
1 69781U 26151U   26191.83335647  .00028630  00000+0  81841-3 0  9997
2 69781  51.8715 201.5588 0010307 149.1979 182.8331 15.35711804  2339
KUIPER-00627            
1 69782U 26151V   26191.83335647  .00030048  00000+0  86463-3 0  9999
2 69782  51.8687 201.5749 0011405 153.7509 170.2610 15.35467559  1309
